{"type": "FeatureCollection", "features": [ {"type": "Feature", "properties": {"norad_id": 38552, "name": "METEOSAT-10 (MSG-3)", "group": "weather", "lat": 4.123152607673707, "lon": 164.2367345210727, "alt_km": 35787.51500112967, "timestamp": "2025-12-09T05:43:20.369701+00:00", "meta": {"OBJECT_NAME": "METEOSAT-10 (MSG-3)", "OBJECT_ID": "2012-035B", "EPOCH": "2025-12-08T01:37:13.932768", "MEAN_MOTION": 1.00273522, "ECCENTRICITY": 8.845e-05, "INCLINATION": 4.2178, "RA_OF_ASC_NODE": 61.7316, "ARG_OF_PERICENTER": 234.9391, "MEAN_ANOMALY": 164.8501, "EPHEMERIS_TYPE": 0, "CLASSIFICATION_TYPE": "U", "NORAD_CAT_ID": 38552, "ELEMENT_SET_NO": 999, "REV_AT_EPOCH": 4894, "BSTAR": 0, "MEAN_MOTION_DOT": -4e-08, "MEAN_MOTION_DDOT": 0}, "tle": {"line1": "1 38552U 12035B   25342.06752237 -.00000004  00000+0  00000+0 0  9995", "line2": "2 38552   4.2178  61.7316 0000884 234.9391 164.8501  1.00273522 48944"}}, "geometry": {"type": "Point", "coordinates": [164.2367345210727, 4.123152607673707]}}, {"type": "Feature", "properties": {"norad_id": 38771, "name": "METOP-B", "group": "weather", "lat": -1.6015266210374701, "lon": -146.98828773951465, "alt_km": 822.0121449515336, "timestamp": "2025-12-09T05:43:20.369713+00:00", "meta": {"OBJECT_NAME": "METOP-B", "OBJECT_ID": "2012-049A", "EPOCH": "2025-12-08T18:44:05.008992", "MEAN_MOTION": 14.21406388, "ECCENTRICITY": 0.0002746, "INCLINATION": 98.6804, "RA_OF_ASC_NODE": 32.8064, "ARG_OF_PERICENTER": 152.7578, "MEAN_ANOMALY": 207.3744, "EPHEMERIS_TYPE": 0, "CLASSIFICATION_TYPE": "U", "NORAD_CAT_ID": 38771, "ELEMENT_SET_NO": 999, "REV_AT_EPOCH": 68621, "BSTAR": 0.00015082, "MEAN_MOTION_DOT": 2.86e-06, "MEAN_MOTION_DDOT": 0}, "tle": {"line1": "1 38771U 12049A   25342.78061353  .00000286  00000+0  15082-3 0  9995", "line2": "2 38771  98.6804  32.8064 0002746 152.7578 207.3744 14.21406388686217"}}, "geometry": {"type": "Point", "coordinates": [-146.98828773951465, -1.6015266210374701]}}, {"type": "Feature", "properties": {"norad_id": 39216, "name": "INSAT-3D", "group": "weather", "lat": -0.7040352296967443, "lon": -66.38198944318853, "alt_km": 35781.40603917008, "timestamp": "2025-12-09T05:43:20.369725+00:00", "meta": {"OBJECT_NAME": "INSAT-3D", "OBJECT_ID": "2013-038B", "EPOCH": "2025-12-08T19:21:20.292768", "MEAN_MOTION": 1.00271475, "ECCENTRICITY": 0.000168, "INCLINATION": 1.4347, "RA_OF_ASC_NODE": 85.0303, "ARG_OF_PERICENTER": 162.2321, "MEAN_ANOMALY": 250.4251, "EPHEMERIS_TYPE": 0, "CLASSIFICATION_TYPE": "U", "NORAD_CAT_ID": 39216, "ELEMENT_SET_NO": 999, "REV_AT_EPOCH": 4517, "BSTAR": 0, "MEAN_MOTION_DOT": -3.37e-06, "MEAN_MOTION_DDOT": 0}, "tle": {"line1": "1 39216U 13038B   25342.80648487 -.00000337  00000+0  00000+0 0  9999", "line2": "2 39216   1.4347  85.0303 0001680 162.2321 250.4251  1.00271475 45176"}}, "geometry": {"type": "Point", "coordinates": [-66.38198944318853, -0.7040352296967443]}}, {"type": "Feature", "properties": {"norad_id": 39260, "name": "FENGYUN 3C", "group": "weather", "lat": 39.090621358603656, "lon": 148.04684170525596, "alt_km": 832.8227909611469, "timestamp": "2025-12-09T05:43:20.369736+00:00", "meta": {"OBJECT_NAME": "FENGYUN 3C", "OBJECT_ID": "2013-052A", "EPOCH": "2025-12-08T20:34:46.334208", "MEAN_MOTION": 14.15694673, "ECCENTRICITY": 0.0014069, "INCLINATION": 98.4759, "RA_OF_ASC_NODE": 320.7265, "ARG_OF_PERICENTER": 207.5826, "MEAN_ANOMALY": 152.4604, "EPHEMERIS_TYPE": 0, "CLASSIFICATION_TYPE": "U", "NORAD_CAT_ID": 39260, "ELEMENT_SET_NO": 999, "REV_AT_EPOCH": 63163, "BSTAR": 0.00014698, "MEAN_MOTION_DOT": 2.47e-06, "MEAN_MOTION_DDOT": 0}, "tle": {"line1": "1 39260U 13052A   25342.85748072  .00000247  00000+0  14698-3 0  9991", "line2": "2 39260  98.4759 320.7265 0014069 207.5826 152.4604 14.15694673631636"}}, "geometry": {"type": "Point", "coordinates": [148.04684170525596, 39.090621358603656]}}, {"type": "Feature", "properties": {"norad_id": 40069, "name": "METEOR-M 2", "group": "weather", "lat": 49.33392114791483, "lon": -49.055656599432204, "alt_km": 819.6080843433447, "timestamp": "2025-12-09T05:43:20.369747+00:00", "meta": {"OBJECT_NAME": "METEOR-M 2", "OBJECT_ID": "2014-037A", "EPOCH": "2025-12-08T21:02:24.135936", "MEAN_MOTION": 14.21382719, "ECCENTRICITY": 0.0004822, "INCLINATION": 98.4897, "RA_OF_ASC_NODE": 320.6087, "ARG_OF_PERICENTER": 222.9303, "MEAN_ANOMALY": 137.1499, "EPHEMERIS_TYPE": 0, "CLASSIFICATION_TYPE": "U", "NORAD_CAT_ID": 40069, "ELEMENT_SET_NO": 999, "REV_AT_EPOCH": 59228, "BSTAR": -3.7706e-05, "MEAN_MOTION_DOT": -1.24e-06, "MEAN_MOTION_DDOT": 0}, "tle": {"line1": "1 40069U 14037A   25342.87666824 -.00000124  00000+0 -37706-4 0  9992", "line2": "2 40069  98.4897 320.6087 0004822 222.9303 137.1499 14.21382719592287"}}, "geometry": {"type": "Point", "coordinates": [-49.055656599432204, 49.33392114791483]}}, {"type": "Feature", "properties": {"norad_id": 40267, "name": "HIMAWARI-8", "group": "weather", "lat": 0.009118276506214265, "lon": -55.271968312285665, "alt_km": 35781.18632495777, "timestamp": "2025-12-09T05:43:20.369761+00:00", "meta": {"OBJECT_NAME": "HIMAWARI-8", "OBJECT_ID": "2014-060A", "EPOCH": "2025-12-08T19:24:34.983072", "MEAN_MOTION": 1.00270625, "ECCENTRICITY": 0.0001263, "INCLINATION": 0.0334, "RA_OF_ASC_NODE": 222.4763, "ARG_OF_PERICENTER": 73.5693, "MEAN_ANOMALY": 213.5731, "EPHEMERIS_TYPE": 0, "CLASSIFICATION_TYPE": "U", "NORAD_CAT_ID": 40267, "ELEMENT_SET_NO": 999, "REV_AT_EPOCH": 4085, "BSTAR": 0, "MEAN_MOTION_DOT": -2.73e-06, "MEAN_MOTION_DDOT": 0}, "tle": {"line1": "1 40267U 14060A   25342.80873823 -.00000273  00000+0  00000+0 0  9996", "line2": "2 40267   0.0334 222.4763 0001263  73.5693 213.5731  1.00270625 40854"}}, "geometry": {"type": "Point", "coordinates": [-55.271968312285665, 0.009118276506214265]}}, {"type": "Feature", "properties": {"norad_id": 40367, "name": "FENGYUN 2G", "group": "weather", "lat": -0.786333568708375, "lon": -96.3533617520166, "alt_km": 35775.11970439937, "timestamp": "2025-12-09T05:43:20.369785+00:00", "meta": {"OBJECT_NAME": "FENGYUN 2G", "OBJECT_ID": "2014-090A", "EPOCH": "2025-12-08T17:30:10.330272", "MEAN_MOTION": 1.00265504, "ECCENTRICITY": 0.0003085, "INCLINATION": 5.1581, "RA_OF_ASC_NODE": 75.1439, "ARG_OF_PERICENTER": 197.6958, "MEAN_ANOMALY": 167.0613, "EPHEMERIS_TYPE": 0, "CLASSIFICATION_TYPE": "U", "NORAD_CAT_ID": 40367, "ELEMENT_SET_NO": 999, "REV_AT_EPOCH": 4009, "BSTAR": 0, "MEAN_MOTION_DOT": -3e-06, "MEAN_MOTION_DDOT": 0}, "tle": {"line1": "1 40367U 14090A   25342.72928623 -.00000300  00000+0  00000+0 0  9991", "line2": "2 40367   5.1581  75.1439 0003085 197.6958 167.0613  1.00265504 40092"}}, "geometry": {"type": "Point", "coordinates": [-96.3533617520166, -0.786333568708375]}}, {"type": "Feature", "properties": {"norad_id": 40732, "name": "METEOSAT-11 (MSG-4)", "group": "weather", "lat": 2.6706713924921743, "lon": 173.42601722317497, "alt_km": 35783.384259641876, "timestamp": "2025-12-09T05:43:20.369809+00:00", "meta": {"OBJECT_NAME": "METEOSAT-11 (MSG-4)", "OBJECT_ID": "2015-034A", "EPOCH": "2025-12-08T18:47:08.569248", "MEAN_MOTION": 1.00266261, "ECCENTRICITY": 9.78e-05, "INCLINATION": 2.7254, "RA_OF_ASC_NODE": 72.013, "ARG_OF_PERICENTER": 121.2086, "MEAN_ANOMALY": 175.7059, "EPHEMERIS_TYPE": 0, "CLASSIFICATION_TYPE": "U", "NORAD_CAT_ID": 40732, "ELEMENT_SET_NO": 999, "REV_AT_EPOCH": 530, "BSTAR": 0, "MEAN_MOTION_DOT": 6.3e-07, "MEAN_MOTION_DDOT": 0}, "tle": {"line1": "1 40732U 15034A   25342.78273807  .00000063  00000+0  00000+0 0  9994", "line2": "2 40732   2.7254  72.0130 0000978 121.2086 175.7059  1.00266261  5301"}}, "geometry": {"type": "Point", "coordinates": [173.42601722317497, 2.6706713924921743]}}, {"type": "Feature", "properties": {"norad_id": 41105, "name": "ELEKTRO-L 2", "group": "weather", "lat": 6.057584243981139, "lon": 149.45272369825318, "alt_km": 35794.788104767096, "timestamp": "2025-12-09T05:43:20.369824+00:00", "meta": {"OBJECT_NAME": "ELEKTRO-L 2", "OBJECT_ID": "2015-074A", "EPOCH": "2025-12-08T01:32:59.339616", "MEAN_MOTION": 1.00272095, "ECCENTRICITY": 0.00038959, "INCLINATION": 6.2137, "RA_OF_ASC_NODE": 72.8831, "ARG_OF_PERICENTER": 202.1976, "MEAN_ANOMALY": 170.7351, "EPHEMERIS_TYPE": 0, "CLASSIFICATION_TYPE": "U", "NORAD_CAT_ID": 41105, "ELEMENT_SET_NO": 999, "REV_AT_EPOCH": 3659, "BSTAR": 0, "MEAN_MOTION_DOT": -1.16e-06, "MEAN_MOTION_DDOT": 0}, "tle": {"line1": "1 41105U 15074A   25342.06457569 -.00000116  00000+0  00000+0 0  9993", "line2": "2 41105   6.2137  72.8831 0003895 202.1976 170.7351  1.00272095 36596"}}, "geometry": {"type": "Point", "coordinates": [149.45272369825318, 6.057584243981139]}}, {"type": "Feature", "properties": {"norad_id": 41752, "name": "INSAT-3DR", "group": "weather", "lat": 0.017525622282510922, "lon": -122.01789216612804, "alt_km": 35734.35052961356, "timestamp": "2025-12-09T05:43:20.369836+00:00", "meta": {"OBJECT_NAME": "INSAT-3DR", "OBJECT_ID": "2016-054A", "EPOCH": "2025-12-08T19:05:29.311296", "MEAN_MOTION": 1.00270228, "ECCENTRICITY": 0.0014538, "INCLINATION": 0.0824, "RA_OF_ASC_NODE": 86.7758, "ARG_OF_PERICENTER": 183.391, "MEAN_ANOMALY": 168.0107, "EPHEMERIS_TYPE": 0, "CLASSIFICATION_TYPE": "U", "NORAD_CAT_ID": 41752, "ELEMENT_SET_NO": 999, "REV_AT_EPOCH": 3390, "BSTAR": 0, "MEAN_MOTION_DOT": -7.5e-07, "MEAN_MOTION_DDOT": 0}, "tle": {"line1": "1 41752U 16054A   25342.79547814 -.00000075  00000+0  00000+0 0  9997", "line2": "2 41752   0.0824  86.7758 0014538 183.3910 168.0107  1.00270228 33902"}}, "geometry": {"type": "Point", "coordinates": [-122.01789216612804, 0.017525622282510922]}}]}